COSMOS 2251 DEB         
1 37531U 93036BNL 17343.52233222  .00000826  00000-0  29503-3 0  9997
2 37531  74.0244 286.2153 0057515 349.6550  10.3414 14.34774472279121
